SENTINEL-6              
1 46984U 20086A   23290.47858474 -.00000032  00000+0  12803-3 0  9992
2 46984  66.0443 357.4562 0007883 268.0176  91.9936 12.80930344135611
